{
  "norad_id": 56958,
  "name": "GHOST-3",
  "history": [
    {
      "epoch": "2026-03-28T22:20:58.353216Z",
      "apogee_km": 435.95777669963536,
      "perigee_km": 426.7699895380774,
      "latitude_deg": -2.513573456503841e-05,
      "longitude_deg": 70.83536590270731,
      "height_km": 438.048605379731,
      "semi_major_axis_km": 6809.500883118856,
      "eccentricity": 0.00067463,
      "inclination_deg": 97.609,
      "raan_deg": 232.4231,
      "arg_perigee_deg": 219.1879,
      "mean_anomaly_deg": 140.8881,
      "mean_motion_rev_day": 15.45004829
    },
    {
      "epoch": "2026-03-29T04:34:01.626240Z",
      "apogee_km": 435.8810178934018,
      "perigee_km": 426.74137652310947,
      "latitude_deg": -2.424847338654115e-05,
      "longitude_deg": -22.41201851166812,
      "height_km": 438.0126939324115,
      "semi_major_axis_km": 6809.448197208256,
      "eccentricity": 0.0006711,
      "inclination_deg": 97.609,
      "raan_deg": 232.6947,
      "arg_perigee_deg": 218.4784,
      "mean_anomaly_deg": 141.5986,
      "mean_motion_rev_day": 15.4502276
    },
    {
      "epoch": "2026-03-30T03:52:57.085248Z",
      "apogee_km": 435.7547931657673,
      "perigee_km": 426.5649660970157,
      "latitude_deg": -2.0531158508496832e-05,
      "longitude_deg": -12.082827277486851,
      "height_km": 438.0347751037072,
      "semi_major_axis_km": 6809.296879631391,
      "eccentricity": 0.0006748,
      "inclination_deg": 97.6094,
      "raan_deg": 233.7125,
      "arg_perigee_deg": 215.2799,
      "mean_anomaly_deg": 144.8003,
      "mean_motion_rev_day": 15.45074261
    },
    {
      "epoch": "2026-03-30T06:59:28.261248Z",
      "apogee_km": 435.7294118999225,
      "perigee_km": 426.5438379653615,
      "latitude_deg": -4.7603243973159055e-06,
      "longitude_deg": -58.70459735269619,
      "height_km": 438.02492276831066,
      "semi_major_axis_km": 6809.273624932642,
      "eccentricity": 0.00067449,
      "inclination_deg": 97.6095,
      "raan_deg": 233.8483,
      "arg_perigee_deg": 214.9511,
      "mean_anomaly_deg": 145.1295,
      "mean_motion_rev_day": 15.45082176
    },
    {
      "epoch": "2026-03-30T11:39:14.911200Z",
      "apogee_km": 435.7096574892157,
      "perigee_km": 426.49376145027145,
      "latitude_deg": -1.020656907740716e-05,
      "longitude_deg": -128.63707209812466,
      "height_km": 438.03720478479596,
      "semi_major_axis_km": 6809.238709469743,
      "eccentricity": 0.00067672,
      "inclination_deg": 97.6094,
      "raan_deg": 234.0517,
      "arg_perigee_deg": 214.1885,
      "mean_anomaly_deg": 145.8928,
      "mean_motion_rev_day": 15.4509406
    },
    {
      "epoch": "2026-03-30T22:32:03.334272Z",
      "apogee_km": 435.6606765045044,
      "perigee_km": 426.39530951521465,
      "latitude_deg": 4.632044524166367e-05,
      "longitude_deg": 68.18932756673057,
      "height_km": 438.0646986437563,
      "semi_major_axis_km": 6809.164993009859,
      "eccentricity": 0.00068036,
      "inclination_deg": 97.6096,
      "raan_deg": 234.5267,
      "arg_perigee_deg": 212.3658,
      "mean_anomaly_deg": 147.7174,
      "mean_motion_rev_day": 15.45119151
    },
    {
      "epoch": "2026-03-31T20:17:38.391072Z",
      "apogee_km": 435.5439017937415,
      "perigee_km": 426.2468489883822,
      "latitude_deg": -1.8981925630171547e-05,
      "longitude_deg": 101.84952681489763,
      "height_km": 438.0796088429207,
      "semi_major_axis_km": 6809.032375391062,
      "eccentricity": 0.0006827,
      "inclination_deg": 97.61,
      "raan_deg": 235.4766,
      "arg_perigee_deg": 209.1255,
      "mean_anomaly_deg": 150.9613,
      "mean_motion_rev_day": 15.45164292
    },
    {
      "epoch": "2026-04-01T08:43:40.248192Z",
      "apogee_km": 435.46535020768715,
      "perigee_km": 426.191539271952,
      "latitude_deg": -7.707129484144699e-05,
      "longitude_deg": -84.6256428435117,
      "height_km": 438.071256849044,
      "semi_major_axis_km": 6808.96544473982,
      "eccentricity": 0.000681,
      "inclination_deg": 97.6102,
      "raan_deg": 236.0198,
      "arg_perigee_deg": 207.3255,
      "mean_anomaly_deg": 152.7635,
      "mean_motion_rev_day": 15.45187075
    }
  ]
}